{
  "type": "FeatureCollection",
  "features": [
    {
      "type": "Feature",
      "properties": {
        "norad_id": 34635,
        "name": "COSMOS 2251 DEB",
        "group": "cosmos-2251-debris",
        "lat": -70.83652455330973,
        "lon": -44.30742505118836,
        "alt_km": 680.3195238216958,
        "timestamp": "2025-12-07T18:50:17.109669+00:00",
        "meta_object_name": "COSMOS 2251 DEB",
        "meta_object_id": "1993-036XG",
        "meta_epoch": "2025-12-07T06:20:56.084064",
        "meta_mean_motion": 14.68143806,
        "meta_eccentricity": 0.00290751,
        "meta_inclination": 74.046,
        "meta_ra_of_asc_node": 81.2949,
        "meta_arg_of_pericenter": 151.9281,
        "meta_mean_anomaly": 237.7317,
        "meta_ephemeris_type": 0,
        "meta_classification_type": "U",
        "meta_norad_cat_id": 34635,
        "meta_element_set_no": 999,
        "meta_rev_at_epoch": 73139,
        "meta_bstar": 0.0022036104,
        "meta_mean_motion_dot": 0.00012745,
        "meta_mean_motion_ddot": 0,
        "tle_line1": "1 34635U 93036XG  25341.26453801  .00012745  00000+0  22036-2 0  9999",
        "tle_line2": "2 34635  74.0460  81.2949 0029075 151.9281 237.7317 14.68143806731391"
      },
      "geometry": {
        "type": "Point",
        "coordinates": [
          -44.30742505118836,
          -70.83652455330973
        ]
      }
    },
    {
      "type": "Feature",
      "properties": {
        "norad_id": 34637,
        "name": "COSMOS 2251 DEB",
        "group": "cosmos-2251-debris",
        "lat": -51.78887600161345,
        "lon": -48.090998895516925,
        "alt_km": 677.8762869225484,
        "timestamp": "2025-12-07T18:50:17.109679+00:00",
        "meta_object_name": "COSMOS 2251 DEB",
        "meta_object_id": "1993-036XJ",
        "meta_epoch": "2025-12-06T19:19:00.292800",
        "meta_mean_motion": 14.60004377,
        "meta_eccentricity": 0.00503776,
        "meta_inclination": 74.049,
        "meta_ra_of_asc_node": 112.4735,
        "meta_arg_of_pericenter": 184.4089,
        "meta_mean_anomaly": 300.7701,
        "meta_ephemeris_type": 0,
        "meta_classification_type": "U",
        "meta_norad_cat_id": 34637,
        "meta_element_set_no": 999,
        "meta_rev_at_epoch": 88440,
        "meta_bstar": 0.0019512232,
        "meta_mean_motion_dot": 9.516e-05,
        "meta_mean_motion_ddot": 0,
        "tle_line1": "1 34637U 93036XJ  25340.80486450  .00009516  00000+0  19512-2 0  9993",
        "tle_line2": "2 34637  74.0490 112.4735 0050377 184.4089 300.7701 14.60004377884402"
      },
      "geometry": {
        "type": "Point",
        "coordinates": [
          -48.090998895516925,
          -51.78887600161345
        ]
      }
    },
    {
      "type": "Feature",
      "properties": {
        "norad_id": 34641,
        "name": "COSMOS 2251 DEB",
        "group": "cosmos-2251-debris",
        "lat": 8.556876126415737,
        "lon": 93.5944493050272,
        "alt_km": 708.0838162126374,
        "timestamp": "2025-12-07T18:50:17.109689+00:00",
        "meta_object_name": "COSMOS 2251 DEB",
        "meta_object_id": "1993-036XN",
        "meta_epoch": "2025-12-07T07:21:43.493760",
        "meta_mean_motion": 14.51935512,
        "meta_eccentricity": 0.00178485,
        "meta_inclination": 73.8391,
        "meta_ra_of_asc_node": 92.0049,
        "meta_arg_of_pericenter": 8.6323,
        "meta_mean_anomaly": 22.0244,
        "meta_ephemeris_type": 0,
        "meta_classification_type": "U",
        "meta_norad_cat_id": 34641,
        "meta_element_set_no": 999,
        "meta_rev_at_epoch": 88177,
        "meta_bstar": 0.0017326288,
        "meta_mean_motion_dot": 6.982e-05,
        "meta_mean_motion_ddot": 0,
        "tle_line1": "1 34641U 93036XN  25341.30675340  .00006982  00000+0  17326-2 0  9997",
        "tle_line2": "2 34641  73.8391  92.0049 0017848   8.6323  22.0244 14.51935512881776"
      },
      "geometry": {
        "type": "Point",
        "coordinates": [
          93.5944493050272,
          8.556876126415737
        ]
      }
    },
    {
      "type": "Feature",
      "properties": {
        "norad_id": 34642,
        "name": "COSMOS 2251 DEB",
        "group": "cosmos-2251-debris",
        "lat": -38.948812937349715,
        "lon": -25.02093480021901,
        "alt_km": 1033.4163078712836,
        "timestamp": "2025-12-07T18:50:17.109699+00:00",
        "meta_object_name": "COSMOS 2251 DEB",
        "meta_object_id": "1993-036XP",
        "meta_epoch": "2025-12-06T11:09:03.378816",
        "meta_mean_motion": 13.98947796,
        "meta_eccentricity": 0.02077875,
        "meta_inclination": 74.0051,
        "meta_ra_of_asc_node": 350.6706,
        "meta_arg_of_pericenter": 171.9765,
        "meta_mean_anomaly": 339.3192,
        "meta_ephemeris_type": 0,
        "meta_classification_type": "U",
        "meta_norad_cat_id": 34642,
        "meta_element_set_no": 999,
        "meta_rev_at_epoch": 85205,
        "meta_bstar": 0.0018241564,
        "meta_mean_motion_dot": 3.146e-05,
        "meta_mean_motion_ddot": 0,
        "tle_line1": "1 34642U 93036XP  25340.46462244  .00003146  00000+0  18242-2 0  9998",
        "tle_line2": "2 34642  74.0051 350.6706 0207787 171.9765 339.3192 13.98947796852055"
      },
      "geometry": {
        "type": "Point",
        "coordinates": [
          -25.02093480021901,
          -38.948812937349715
        ]
      }
    },
    {
      "type": "Feature",
      "properties": {
        "norad_id": 34671,
        "name": "COSMOS 2251 DEB",
        "group": "cosmos-2251-debris",
        "lat": -26.775902892286457,
        "lon": -27.82948828261616,
        "alt_km": 668.6377779097656,
        "timestamp": "2025-12-07T18:50:17.109709+00:00",
        "meta_object_name": "COSMOS 2251 DEB",
        "meta_object_id": "1993-036XR",
        "meta_epoch": "2025-12-07T05:36:10.147392",
        "meta_mean_motion": 14.66774726,
        "meta_eccentricity": 0.00118669,
        "meta_inclination": 74.0261,
        "meta_ra_of_asc_node": 144.9237,
        "meta_arg_of_pericenter": 224.0954,
        "meta_mean_anomaly": 312.9906,
        "meta_ephemeris_type": 0,
        "meta_classification_type": "U",
        "meta_norad_cat_id": 34671,
        "meta_element_set_no": 999,
        "meta_rev_at_epoch": 88216,
        "meta_bstar": 0.0026578307,
        "meta_mean_motion_dot": 0.00014837,
        "meta_mean_motion_ddot": 0,
        "tle_line1": "1 34671U 93036XR  25341.23345078  .00014837  00000+0  26578-2 0  9991",
        "tle_line2": "2 34671  74.0261 144.9237 0011866 224.0954 312.9906 14.66774726882166"
      },
      "geometry": {
        "type": "Point",
        "coordinates": [
          -27.82948828261616,
          -26.775902892286457
        ]
      }
    },
    {
      "type": "Feature",
      "properties": {
        "norad_id": 34672,
        "name": "COSMOS 2251 DEB",
        "group": "cosmos-2251-debris",
        "lat": -28.881765401226755,
        "lon": 143.7810839811435,
        "alt_km": 792.7105423635976,
        "timestamp": "2025-12-07T18:50:17.109719+00:00",
        "meta_object_name": "COSMOS 2251 DEB",
        "meta_object_id": "1993-036XS",
        "meta_epoch": "2025-12-05T16:32:33.080064",
        "meta_mean_motion": 14.36390754,
        "meta_eccentricity": 0.0023475,
        "meta_inclination": 74.0334,
        "meta_ra_of_asc_node": 318.5432,
        "meta_arg_of_pericenter": 32.3823,
        "meta_mean_anomaly": 145.4069,
        "meta_ephemeris_type": 0,
        "meta_classification_type": "U",
        "meta_norad_cat_id": 34672,
        "meta_element_set_no": 999,
        "meta_rev_at_epoch": 65076,
        "meta_bstar": 0.00046522033,
        "meta_mean_motion_dot": 1.341e-05,
        "meta_mean_motion_ddot": 0,
        "tle_line1": "1 34672U 93036XS  25339.68927176  .00001341  00000+0  46522-3 0  9991",
        "tle_line2": "2 34672  74.0334 318.5432 0023475  32.3823 145.4069 14.36390754650768"
      },
      "geometry": {
        "type": "Point",
        "coordinates": [
          143.7810839811435,
          -28.881765401226755
        ]
      }
    },
    {
      "type": "Feature",
      "properties": {
        "norad_id": 34678,
        "name": "COSMOS 2251 DEB",
        "group": "cosmos-2251-debris",
        "lat": 32.21631539065998,
        "lon": -175.68852982966092,
        "alt_km": 786.4236049097335,
        "timestamp": "2025-12-07T18:50:17.109729+00:00",
        "meta_object_name": "COSMOS 2251 DEB",
        "meta_object_id": "1993-036XY",
        "meta_epoch": "2025-12-07T06:59:19.007808",
        "meta_mean_motion": 14.30063709,
        "meta_eccentricity": 0.00243028,
        "meta_inclination": 74.0381,
        "meta_ra_of_asc_node": 15.5988,
        "meta_arg_of_pericenter": 66.4846,
        "meta_mean_anomaly": 58.6638,
        "meta_ephemeris_type": 0,
        "meta_classification_type": "U",
        "meta_norad_cat_id": 34678,
        "meta_element_set_no": 999,
        "meta_rev_at_epoch": 87301,
        "meta_bstar": 5.3614982e-05,
        "meta_mean_motion_dot": 1.13e-06,
        "meta_mean_motion_ddot": 0,
        "tle_line1": "1 34678U 93036XY  25341.29119222  .00000113  00000+0  53615-4 0  9990",
        "tle_line2": "2 34678  74.0381  15.5988 0024302  66.4846  58.6638 14.30063709873012"
      },
      "geometry": {
        "type": "Point",
        "coordinates": [
          -175.68852982966092,
          32.21631539065998
        ]
      }
    }
  ]
}